QIANFAN-57              
1 62787U 25016C   26008.19207114  .00000167  00000+0  24063-3 0  9996
2 62787  88.9781 100.4728 0002563 100.9163 259.2276 13.50985827 50771
QIANFAN-58              
1 62788U 25016D   26008.16321057  .00000168  00000+0  24243-3 0  9998
2 62788  88.9750 100.2993 0012189 263.4031  96.5732 13.50987567 50811
QIANFAN-59              
1 62789U 25016E   26008.18788590  .00000172  00000+0  24824-3 0  9990
2 62789  88.9774 100.3767 0012505 267.8646  92.1073 13.50983889 50813
QIANFAN-60              
1 62790U 25016F   26008.14675607  .00000164  00000+0  23482-3 0  9992
2 62790  88.9755 100.3473 0014083 264.2061  95.7484 13.50993026 50799
QIANFAN-61              
1 62791U 25016G   26008.17964189  .00000160  00000+0  22976-3 0  9995
2 62791  88.9822 100.5249 0013030 263.2720  96.6949 13.50983343 50810
QIANFAN-62              
1 62792U 25016H   26008.18379236  .00000159  00000+0  22747-3 0  9994
2 62792  88.9769 100.3786 0014410 263.9828  95.9681 13.50985979 50805
QIANFAN-63              
1 62793U 25016J   26008.13438088  .00000178  00000+0  25712-3 0  9997
2 62793  88.9775 100.3370 0014400 270.0864  89.8637 13.50984178 50836
QIANFAN-64              
1 62794U 25016K   26008.17551778  .00000166  00000+0  23900-3 0  9998
2 62794  88.9762 100.3033 0012428 261.5602  98.4140 13.50987589 50836
